NORAD_CAT_ID,OBJECT_NAME,OBJECT_TYPE,EPOCH,MEAN_MOTION,ECCENTRICITY,INCLINATION,RA_OF_ASC_NODE,ARG_OF_PERICENTER,MEAN_ANOMALY,BSTAR,MEAN_MOTION_DOT,MEAN_MOTION_DDOT,TLE_LINE0,TLE_LINE1,TLE_LINE2,SEMIMAJOR_AXIS,PERIOD,APOGEE,PERIGEE,DECAYED
53029.0,STARLINK-4143,PAYLOAD,2023-08-03 09:53:26,15.08839466,0.0001084,53.2164,15.5923,94.2476,265.864,4.1204e-05,3.68e-06,0.0,0 STARLINK-4143,1 53029U 22076AV  23215.41211754  .00000368  00000-0  41204-4 0  9996,2 53029  53.2164  15.5923 0001084  94.2476 265.8640 15.08839466 60289,6917.882,95.438,540.497,538.997,0.0
53029.0,STARLINK-4143,PAYLOAD,2023-08-04 17:41:10,15.0883814,9.88e-05,53.2172,9.6454,85.1727,274.9378,5.7596e-05,6.29e-06,0.0,0 STARLINK-4143,1 53029U 22076AV  23216.73692528  .00000629  00000-0  57596-4 0  9995,2 53029  53.2172   9.6454 0000988  85.1727 274.9378 15.08838140 60480,6917.886,95.438,540.435,539.068,0.0
53029.0,STARLINK-4143,PAYLOAD,2023-08-05 17:31:56,15.08859484,0.0001081,53.2174,5.1836,72.7508,287.3602,0.00040557,6.176e-05,0.0,0 STARLINK-4143,1 53029U 22076AV  23217.73051391  .00006176  00000-0  40557-3 0  9994,2 53029  53.2174   5.1836 0001081  72.7508 287.3602 15.08859484 60630,6917.821,95.436,540.434,538.938,0.0
53029.0,STARLINK-4143,PAYLOAD,2023-08-06 09:25:49,15.08829424,0.0001122,53.2164,2.2119,89.9426,270.1694,-8.7093e-05,-1.673e-05,0.0,0 STARLINK-4143,1 53029U 22076AV  23218.39292957 -.00001673  00000-0 -87093-4 0  9998,2 53029  53.2164   2.2119 0001122  89.9426 270.1694 15.08829424 60739,6917.913,95.438,540.554,539.002,0.0
53029.0,STARLINK-4143,PAYLOAD,2023-08-06 17:22:45,15.08822483,0.0001012,53.2176,0.7226,99.7284,260.3822,-0.0001854,-3.236e-05,0.0,0 STARLINK-4143,1 53029U 22076AV  23218.72413460 -.00003236  00000-0 -18540-3 0  9996,2 53029  53.2176   0.7226 0001012  99.7284 260.3822 15.08822483 60780,6917.934,95.439,540.499,539.099,0.0
53029.0,STARLINK-4143,PAYLOAD,2023-08-07 15:38:09,15.08839872,9.07e-05,53.217,356.5611,99.9344,260.175,0.0008321,0.0001298,0.0,0 STARLINK-4143,1 53029U 22076AV  23219.65150186  .00012980  00000-0  83210-3 0  9992,2 53029  53.2170 356.5611 0000907  99.9344 260.1750 15.08839872 60929,6917.881,95.438,540.373,539.118,0.0
53029.0,STARLINK-4143,PAYLOAD,2023-08-09 08:58:10,15.08856351,7.76e-05,53.2168,348.8298,89.6392,270.4689,0.00038943,5.918e-05,0.0,0 STARLINK-4143,1 53029U 22076AV  23221.37372960  .00005918  00000-0  38943-3 0  9996,2 53029  53.2168 348.8298 0000776  89.6392 270.4689 15.08856351 61189,6917.83,95.437,540.232,539.159,0.0
53029.0,STARLINK-4143,PAYLOAD,2023-08-09 15:19:42,15.0885158,6.71e-05,53.2171,347.64,92.3008,267.8061,0.00018187,2.609e-05,0.0,0 STARLINK-4143,1 53029U 22076AV  23221.63868941  .00002609  00000-0  18187-3 0  9996,2 53029  53.2171 347.6400 0000671  92.3008 267.8061 15.08851580 61222,6917.845,95.437,540.174,539.246,0.0
53029.0,STARLINK-4143,PAYLOAD,2023-08-10 08:48:57,15.08843309,8.83e-05,53.2182,344.37,100.6955,259.4137,-4.2873e-05,-9.7e-06,0.0,0 STARLINK-4143,1 53029U 22076AV  23222.36733031 -.00000970  00000-0 -42873-4 0  9999,2 53029  53.2182 344.3700 0000883 100.6955 259.4137 15.08843309 61333,6917.87,95.437,540.346,539.124,0.0
53029.0,STARLINK-4143,PAYLOAD,2023-08-10 18:21:15,15.08853031,0.0001001,53.2173,342.5844,103.4015,256.7089,7.6962e-05,9.38e-06,0.0,0 STARLINK-4143,1 53029U 22076AV  23222.76476394  .00000938  00000-0  76962-4 0  9997,2 53029  53.2173 342.5844 0001001 103.4015 256.7089 15.08853031 61398,6917.841,95.437,540.398,539.013,0.0
53029.0,STARLINK-4143,PAYLOAD,2023-08-11 00:42:48,15.08841354,7.93e-05,53.2174,341.3934,93.8956,266.2127,2.6464e-05,1.34e-06,0.0,0 STARLINK-4143,1 53029U 22076AV  23223.02972883  .00000134  00000-0  26464-4 0  9991,2 53029  53.2174 341.3934 0000793  93.8956 266.2127 15.08841354 61438,6917.876,95.437,540.29,539.193,0.0
53029.0,STARLINK-4143,PAYLOAD,2023-08-12 08:30:31,15.08836983,9.89e-05,53.2186,335.4496,93.9607,266.1498,-5.6745e-05,-1.191e-05,0.0,0 STARLINK-4143,1 53029U 22076AV  23224.35453136 -.00001191  00000-0 -56745-4 0  9994,2 53029  53.2186 335.4496 0000989  93.9607 266.1498 15.08836983 61633,6917.89,95.438,540.439,539.07,0.0
53029.0,STARLINK-4143,PAYLOAD,2023-08-13 13:07:28,15.08838541,0.0001363,53.2196,330.0973,99.8268,260.2878,1.1742e-05,-1.01e-06,0.0,0 STARLINK-4143,1 53029U 22076AV  23225.54685671 -.00000101  00000-0  11742-4 0  9994,2 53029  53.2196 330.0973 0001363  99.8268 260.2878 15.08838541 61819,6917.885,95.438,540.693,538.807,0.0
53029.0,STARLINK-4143,PAYLOAD,2023-08-14 19:19:46,15.08852181,9.54e-05,53.217,324.4462,94.1354,265.9747,0.00015424,2.169e-05,0.0,0 STARLINK-4143,1 53029U 22076AV  23226.80540282  .00002169  00000-0  15424-3 0  9997,2 53029  53.2170 324.4462 0000954  94.1354 265.9747 15.08852181 62005,6917.843,95.437,540.368,539.048,0.0
53029.0,STARLINK-4143,PAYLOAD,2023-08-15 00:05:57,15.08834895,7.3e-06,53.2188,323.5556,35.401,324.6987,6.1958e-05,6.99e-06,0.0,0 STARLINK-4143,1 53029U 22076AV  23227.00413283  .00000699  00000-0  61958-4 0  9990,2 53029  53.2188 323.5556 0000073  35.4010 324.6987 15.08834895 62031,6917.896,95.438,539.811,539.71,0.0
53029.0,STARLINK-4143,PAYLOAD,2023-08-15 15:59:47,15.08847581,0.0001019,53.2171,320.5795,87.4203,272.6906,0.00013794,1.909e-05,0.0,0 STARLINK-4143,1 53029U 22076AV  23227.66652743  .00001909  00000-0  13794-3 0  9997,2 53029  53.2171 320.5795 0001019  87.4203 272.6906 15.08847581 62137,6917.857,95.437,540.427,539.017,0.0
53029.0,STARLINK-4143,PAYLOAD,2023-08-16 11:04:25,15.08837582,8.39e-05,53.2173,317.0094,112.6863,247.4218,0.00013229,1.818e-05,0.0,0 STARLINK-4143,1 53029U 22076AV  23228.46141172  .00001818  00000-0  13229-3 0  9997,2 53029  53.2173 317.0094 0000839 112.6863 247.4218 15.08837582 62253,6917.888,95.438,540.333,539.172,0.0
53029.0,STARLINK-4143,PAYLOAD,2023-08-17 15:41:22,15.08812991,0.0001714,53.2183,311.658,120.5411,239.575,0.0004454,6.802e-05,0.0,0 STARLINK-4143,1 53029U 22076AV  23229.65373766  .00006802  00000-0  44540-3 0  9993,2 53029  53.2183 311.6580 0001714 120.5411 239.5750 15.08812991 62434,6917.963,95.439,541.014,538.642,0.0
53029.0,STARLINK-4143,PAYLOAD,2023-08-17 22:02:55,15.08838341,0.0001004,53.2169,310.4684,107.8528,252.2574,-3.9488e-05,-9.16e-06,0.0,0 STARLINK-4143,1 53029U 22076AV  23229.91869389 -.00000916  00000-0 -39488-4 0  9991,2 53029  53.2169 310.4684 0001004 107.8528 252.2574 15.08838341 62476,6917.885,95.438,540.445,539.056,0.0
53029.0,STARLINK-4143,PAYLOAD,2023-08-19 04:15:14,15.08840623,0.000114,53.2181,304.8212,103.6347,256.4772,8.9657e-05,1.139e-05,0.0,0 STARLINK-4143,1 53029U 22076AV  23231.17725415  .00001139  00000-0  89657-4 0  9992,2 53029  53.2181 304.8212 0001140 103.6347 256.4772 15.08840623 62661,6917.878,95.438,540.532,538.955,0.0
53029.0,STARLINK-4143,PAYLOAD,2023-08-20 04:06:02,15.08833124,0.0001125,53.218,300.3617,91.8188,268.2933,0.00012623,1.721e-05,0.0,0 STARLINK-4143,1 53029U 22076AV  23232.17086097  .00001721  00000-0  12623-3 0  9994,2 53029  53.2180 300.3617 0001125  91.8188 268.2933 15.08833124 62819,6917.901,95.438,540.545,538.988,0.0
53029.0,STARLINK-4143,PAYLOAD,2023-08-21 11:53:44,15.08846603,0.0001186,53.217,294.4135,79.1704,280.9422,7.1631e-05,8.53e-06,0.0,0 STARLINK-4143,1 53029U 22076AV  23233.49565527  .00000853  00000-0  71631-4 0  9990,2 53029  53.2170 294.4135 0001186  79.1704 280.9422 15.08846603 63019,6917.86,95.437,540.546,538.905,0.0
53029.0,STARLINK-4143,PAYLOAD,2023-08-22 03:47:36,15.08846123,0.0001536,53.217,291.4421,78.0455,282.0709,-6.8723e-05,-1.382e-05,0.0,0 STARLINK-4143,1 53029U 22076AV  23234.15806148 -.00001382  00000-0 -68723-4 0  9999,2 53029  53.2170 291.4421 0001536  78.0455 282.0709 15.08846123 63113,6917.862,95.437,540.789,538.664,0.0
53029.0,STARLINK-4143,PAYLOAD,2023-08-22 10:09:08,15.08878496,0.0001048,53.217,290.2506,76.7791,283.3318,-0.0005443,-8.949e-05,0.0,0 STARLINK-4143,1 53029U 22076AV  23234.42301289 -.00008949  00000-0 -54430-3 0  9990,2 53029  53.2170 290.2506 0001048  76.7791 283.3318 15.08878496 63152,6917.763,95.435,540.353,538.903,0.0
53029.0,STARLINK-4143,PAYLOAD,2023-08-23 08:24:32,15.08845165,0.000133,53.2169,286.0878,77.5413,282.5728,5.9204e-05,6.55e-06,0.0,0 STARLINK-4143,1 53029U 22076AV  23235.35037792  .00000655  00000-0  59204-4 0  9997,2 53029  53.2169 286.0878 0001330  77.5413 282.5728 15.08845165 63297,6917.865,95.437,540.65,538.81,0.0
53029.0,STARLINK-4143,PAYLOAD,2023-08-24 13:01:29,15.08840078,0.0001274,53.2167,280.7339,94.0487,266.0651,6.0375e-05,6.73e-06,0.0,0 STARLINK-4143,1 53029U 22076AV  23236.54270003  .00000673  00000-0  60375-4 0  9994,2 53029  53.2167 280.7339 0001274  94.0487 266.0651 15.08840078 63009,6917.88,95.438,540.626,538.864,0.0
53029.0,STARLINK-4143,PAYLOAD,2023-08-25 09:41:30,15.08841762,0.0001398,53.2164,276.8671,99.8954,260.2196,7.9571e-06,-1.61e-06,0.0,0 STARLINK-4143,1 53029U 22076AV  23237.40382056 -.00000161  00000-0  79571-5 0  9994,2 53029  53.2164 276.8671 0001398  99.8954 260.2196 15.08841762 63135,6917.875,95.437,540.707,538.773,0.0
53029.0,STARLINK-4143,PAYLOAD,2023-08-26 01:35:21,15.08832286,0.0001407,53.2165,273.8929,102.5471,257.5679,4.8814e-05,4.89e-06,0.0,0 STARLINK-4143,1 53029U 22076AV  23238.06622583  .00000489  00000-0  48814-4 0  9996,2 53029  53.2165 273.8929 0001407 102.5471 257.5679 15.08832286 63705,6917.904,95.438,540.742,538.796,0.0
53029.0,STARLINK-4143,PAYLOAD,2023-08-26 09:32:17,15.088379,0.0001438,53.2165,272.4067,100.1342,259.9812,4.8067e-05,4.77e-06,0.0,0 STARLINK-4143,1 53029U 22076AV  23238.39742343  .00000477  00000-0  48067-4 0  9996,2 53029  53.2165 272.4067 0001438 100.1342 259.9812 15.08837900 63284,6917.887,95.438,540.747,538.757,0.0
53029.0,STARLINK-4143,PAYLOAD,2023-08-27 03:01:32,15.08833269,0.0001549,53.2169,269.1359,102.2037,257.9129,1.7648e-05,-7e-08,0.0,0 STARLINK-4143,1 53029U 22076AV  23239.12606961 -.00000007  00000-0  17648-4 0  9994,2 53029  53.2169 269.1359 0001549 102.2037 257.9129 15.08833269 63869,6917.901,95.438,540.838,538.694,0.0
